COSMOS 2361             
1 25590U 98076A   09160.00291595  .00000042  00000-0  28519-4 0   589
2 25590  82.9310 121.1229 0033078 105.4999 254.9817 13.72704494523908
COSMOS 2378             
1 26818U 01023A   09159.47179224  .00000047  00000-0  33733-4 0   480
2 26818  82.9252 148.4246 0034754  75.4245 285.0760 13.73734916401135
COSMOS 2389             
1 27436U 02026A   09159.30985172  .00000004  00000-0 -11226-4 0  7787
2 27436  82.9493  89.1959 0045865 328.1552  31.6832 13.74732948352757
COSMOS 2398             
1 27818U 03023A   09159.76765804  .00000024  00000-0  99622-5 0  6379
2 27818  82.9479  35.0521 0030189 299.6066  60.2092 13.71954766301093
COSMOS 2407             
1 28380U 04028A   09159.49638821  .00000046  00000-0  31963-4 0  4542
2 28380  82.9592 357.2625 0039529 357.9004   2.1984 13.75842970244992
COSMOS 2414             
1 28521U 05002A   09159.73200315  .00000076  00000-0  50831-4 0  3684
2 28521  82.9490  63.5124 0041778  50.7451 309.7405 13.87346479221928
COSMOS 2429             
1 32052U 07038A   09159.89076196  .00000018  00000-0  37282-5 0  5510
2 32052  82.9782 106.0707 0037454 313.1756  46.6271 13.74692424 87429
